{"type": "FeatureCollection", "features": [ {"type": "Feature", "properties": {"norad_id": 66504, "name": "STARLINK-35916", "group": "last-30-days", "lat": -37.4642576854763, "lon": 4.363723846708201, "alt_km": 445.7176585872121, "timestamp": "2025-12-12T07:43:19.257338+00:00", "meta": {"OBJECT_NAME": "STARLINK-35916", "OBJECT_ID": "2025-263V", "EPOCH": "2025-12-11T18:13:29.701056", "MEAN_MOTION": 15.40730519, "ECCENTRICITY": 0.00019694, "INCLINATION": 43.0002, "RA_OF_ASC_NODE": 132.2825, "ARG_OF_PERICENTER": 261.4759, "MEAN_ANOMALY": 98.5874, "EPHEMERIS_TYPE": 0, "CLASSIFICATION_TYPE": "U", "NORAD_CAT_ID": 66504, "ELEMENT_SET_NO": 999, "REV_AT_EPOCH": 539, "BSTAR": 0.0008844206, "MEAN_MOTION_DOT": 0.00036858, "MEAN_MOTION_DDOT": 0}, "tle": {"line1": "1 66504U 25263V   25345.75937154  .00036858  00000+0  88442-3 0  9997", "line2": "2 66504  43.0002 132.2825 0001969 261.4759  98.5874 15.40730519  5397"}}, "geometry": {"type": "Point", "coordinates": [4.363723846708201, -37.4642576854763]}}, {"type": "Feature", "properties": {"norad_id": 66505, "name": "STARLINK-34766", "group": "last-30-days", "lat": 26.833466693826946, "lon": -85.34287945836778, "alt_km": 411.62797202628917, "timestamp": "2025-12-12T07:43:19.257348+00:00", "meta": {"OBJECT_NAME": "STARLINK-34766", "OBJECT_ID": "2025-263W", "EPOCH": "2025-12-11T20:00:01.999872", "MEAN_MOTION": 15.50552281, "ECCENTRICITY": 0.00012868, "INCLINATION": 43.0006, "RA_OF_ASC_NODE": 130.3926, "ARG_OF_PERICENTER": 280.5602, "MEAN_ANOMALY": 8.4639, "EPHEMERIS_TYPE": 0, "CLASSIFICATION_TYPE": "U", "NORAD_CAT_ID": 66505, "ELEMENT_SET_NO": 999, "REV_AT_EPOCH": 549, "BSTAR": -0.00033306969, "MEAN_MOTION_DOT": -0.00019813, "MEAN_MOTION_DDOT": 0}, "tle": {"line1": "1 66505U 25263W   25345.83335648 -.00019813  00000+0 -33307-3 0  9991", "line2": "2 66505  43.0006 130.3926 0001286 280.5602   8.4639 15.50552281  5493"}}, "geometry": {"type": "Point", "coordinates": [-85.34287945836778, 26.833466693826946]}}, {"type": "Feature", "properties": {"norad_id": 66506, "name": "STARLINK-34765", "group": "last-30-days", "lat": 25.73974415408317, "lon": -83.62572510116192, "alt_km": 411.80726111065724, "timestamp": "2025-12-12T07:43:19.257361+00:00", "meta": {"OBJECT_NAME": "STARLINK-34765", "OBJECT_ID": "2025-263X", "EPOCH": "2025-12-11T22:00:01.999584", "MEAN_MOTION": 15.50484594, "ECCENTRICITY": 0.0001562, "INCLINATION": 43.0001, "RA_OF_ASC_NODE": 129.9007, "ARG_OF_PERICENTER": 282.8839, "MEAN_ANOMALY": 113.7657, "EPHEMERIS_TYPE": 0, "CLASSIFICATION_TYPE": "U", "NORAD_CAT_ID": 66506, "ELEMENT_SET_NO": 999, "REV_AT_EPOCH": 550, "BSTAR": 0.0020618251, "MEAN_MOTION_DOT": 0.00122109, "MEAN_MOTION_DDOT": 0}, "tle": {"line1": "1 66506U 25263X   25345.91668981  .00122109  00000+0  20618-2 0  9991", "line2": "2 66506  43.0001 129.9007 0001562 282.8839 113.7657 15.50484594  5500"}}, "geometry": {"type": "Point", "coordinates": [-83.62572510116192, 25.73974415408317]}}, {"type": "Feature", "properties": {"norad_id": 66507, "name": "STARLINK-34767", "group": "last-30-days", "lat": 31.952822067796678, "lon": -94.45762234725792, "alt_km": 428.95965884931957, "timestamp": "2025-12-12T07:43:19.257372+00:00", "meta": {"OBJECT_NAME": "STARLINK-34767", "OBJECT_ID": "2025-263Y", "EPOCH": "2025-12-11T22:00:01.999584", "MEAN_MOTION": 15.46229927, "ECCENTRICITY": 0.00016269, "INCLINATION": 43.0002, "RA_OF_ASC_NODE": 129.9092, "ARG_OF_PERICENTER": 276.4317, "MEAN_ANOMALY": 116.4894, "EPHEMERIS_TYPE": 0, "CLASSIFICATION_TYPE": "U", "NORAD_CAT_ID": 66507, "ELEMENT_SET_NO": 999, "REV_AT_EPOCH": 550, "BSTAR": -0.045140544, "MEAN_MOTION_DOT": -0.02025393, "MEAN_MOTION_DDOT": 0}, "tle": {"line1": "1 66507U 25263Y   25345.91668981 -.02025393  00000+0 -45141-1 0  9990", "line2": "2 66507  43.0002 129.9092 0001626 276.4317 116.4894 15.46229927  5502"}}, "geometry": {"type": "Point", "coordinates": [-94.45762234725792, 31.952822067796678]}}, {"type": "Feature", "properties": {"norad_id": 66508, "name": "STARLINK-35608", "group": "last-30-days", "lat": 20.00076774046805, "lon": -75.4855057869607, "alt_km": 413.71354890238945, "timestamp": "2025-12-12T07:43:19.257382+00:00", "meta": {"OBJECT_NAME": "STARLINK-35608", "OBJECT_ID": "2025-263Z", "EPOCH": "2025-12-11T22:00:01.999584", "MEAN_MOTION": 15.50783828, "ECCENTRICITY": 0.00013338, "INCLINATION": 43.0001, "RA_OF_ASC_NODE": 129.8761, "ARG_OF_PERICENTER": 282.0493, "MEAN_ANOMALY": 124.1307, "EPHEMERIS_TYPE": 0, "CLASSIFICATION_TYPE": "U", "NORAD_CAT_ID": 66508, "ELEMENT_SET_NO": 999, "REV_AT_EPOCH": 550, "BSTAR": -0.012875684, "MEAN_MOTION_DOT": -0.00696928, "MEAN_MOTION_DDOT": 0}, "tle": {"line1": "1 66508U 25263Z   25345.91668981 -.00696928  00000+0 -12876-1 0  9996", "line2": "2 66508  43.0001 129.8761 0001333 282.0493 124.1307 15.50783828  5502"}}, "geometry": {"type": "Point", "coordinates": [-75.4855057869607, 20.00076774046805]}}, {"type": "Feature", "properties": {"norad_id": 66509, "name": "STARLINK-35598", "group": "last-30-days", "lat": 14.980832615239269, "lon": -69.20244333569146, "alt_km": 413.32520771269355, "timestamp": "2025-12-12T07:43:19.257392+00:00", "meta": {"OBJECT_NAME": "STARLINK-35598", "OBJECT_ID": "2025-263AA", "EPOCH": "2025-12-11T20:00:01.999872", "MEAN_MOTION": 15.50529319, "ECCENTRICITY": 0.0001454, "INCLINATION": 43.0003, "RA_OF_ASC_NODE": 130.3427, "ARG_OF_PERICENTER": 281.8482, "MEAN_ANOMALY": 26.345, "EPHEMERIS_TYPE": 0, "CLASSIFICATION_TYPE": "U", "NORAD_CAT_ID": 66509, "ELEMENT_SET_NO": 999, "REV_AT_EPOCH": 549, "BSTAR": 0.00045643118, "MEAN_MOTION_DOT": 0.00026478, "MEAN_MOTION_DDOT": 0}, "tle": {"line1": "1 66509U 25263AA  25345.83335648  .00026478  00000+0  45643-3 0  9994", "line2": "2 66509  43.0003 130.3427 0001454 281.8482  26.3450 15.50529319  5493"}}, "geometry": {"type": "Point", "coordinates": [-69.20244333569146, 14.980832615239269]}}, {"type": "Feature", "properties": {"norad_id": 66510, "name": "STARLINK-35600", "group": "last-30-days", "lat": 18.691325999949974, "lon": -73.78729177280243, "alt_km": 412.72666881168243, "timestamp": "2025-12-12T07:43:19.257403+00:00", "meta": {"OBJECT_NAME": "STARLINK-35600", "OBJECT_ID": "2025-263AB", "EPOCH": "2025-12-11T20:00:01.999872", "MEAN_MOTION": 15.50526892, "ECCENTRICITY": 0.00014466, "INCLINATION": 43.0004, "RA_OF_ASC_NODE": 130.3576, "ARG_OF_PERICENTER": 275.63, "MEAN_ANOMALY": 26.8099, "EPHEMERIS_TYPE": 0, "CLASSIFICATION_TYPE": "U", "NORAD_CAT_ID": 66510, "ELEMENT_SET_NO": 999, "REV_AT_EPOCH": 549, "BSTAR": 0.00055276903, "MEAN_MOTION_DOT": 0.0003216, "MEAN_MOTION_DDOT": 0}, "tle": {"line1": "1 66510U 25263AB  25345.83335648  .00032160  00000+0  55277-3 0  9995", "line2": "2 66510  43.0004 130.3576 0001446 275.6300  26.8099 15.50526892  5499"}}, "geometry": {"type": "Point", "coordinates": [-73.78729177280243, 18.691325999949974]}}, {"type": "Feature", "properties": {"norad_id": 66511, "name": "STARLINK-35444", "group": "last-30-days", "lat": 16.22753014877802, "lon": -70.70808580128507, "alt_km": 413.04806849230954, "timestamp": "2025-12-12T07:43:19.257413+00:00", "meta": {"OBJECT_NAME": "STARLINK-35444", "OBJECT_ID": "2025-263AC", "EPOCH": "2025-12-11T20:00:01.999872", "MEAN_MOTION": 15.50557824, "ECCENTRICITY": 0.00010822, "INCLINATION": 43.0003, "RA_OF_ASC_NODE": 130.3489, "ARG_OF_PERICENTER": 276.432, "MEAN_ANOMALY": 29.8475, "EPHEMERIS_TYPE": 0, "CLASSIFICATION_TYPE": "U", "NORAD_CAT_ID": 66511, "ELEMENT_SET_NO": 999, "REV_AT_EPOCH": 549, "BSTAR": -0.00063683263, "MEAN_MOTION_DOT": -0.00037493, "MEAN_MOTION_DDOT": 0}, "tle": {"line1": "1 66511U 25263AC  25345.83335648 -.00037493  00000+0 -63683-3 0  9992", "line2": "2 66511  43.0003 130.3489 0001082 276.4320  29.8475 15.50557824  5499"}}, "geometry": {"type": "Point", "coordinates": [-70.70808580128507, 16.22753014877802]}}, {"type": "Feature", "properties": {"norad_id": 66512, "name": "STARLINK-35366", "group": "last-30-days", "lat": 13.723980923822463, "lon": -67.71174889327537, "alt_km": 413.5389542629555, "timestamp": "2025-12-12T07:43:19.257423+00:00", "meta": {"OBJECT_NAME": "STARLINK-35366", "OBJECT_ID": "2025-263AD", "EPOCH": "2025-12-11T20:00:01.999872", "MEAN_MOTION": 15.50525565, "ECCENTRICITY": 0.00013336, "INCLINATION": 43.0002, "RA_OF_ASC_NODE": 130.3388, "ARG_OF_PERICENTER": 289.7193, "MEAN_ANOMALY": 20.3912, "EPHEMERIS_TYPE": 0, "CLASSIFICATION_TYPE": "U", "NORAD_CAT_ID": 66512, "ELEMENT_SET_NO": 999, "REV_AT_EPOCH": 549, "BSTAR": 0.00052180615, "MEAN_MOTION_DOT": 0.0003033, "MEAN_MOTION_DDOT": 0}, "tle": {"line1": "1 66512U 25263AD  25345.83335648  .00030330  00000+0  52181-3 0  9995", "line2": "2 66512  43.0002 130.3388 0001333 289.7193  20.3912 15.50525565  5490"}}, "geometry": {"type": "Point", "coordinates": [-67.71174889327537, 13.723980923822463]}}, {"type": "Feature", "properties": {"norad_id": 66513, "name": "STARLINK-35692", "group": "last-30-days", "lat": 17.472152818564165, "lon": -72.24554367554744, "alt_km": 413.3121434936629, "timestamp": "2025-12-12T07:43:19.257434+00:00", "meta": {"OBJECT_NAME": "STARLINK-35692", "OBJECT_ID": "2025-263AE", "EPOCH": "2025-12-11T20:00:01.999872", "MEAN_MOTION": 15.5059429, "ECCENTRICITY": 0.00016307, "INCLINATION": 43.0005, "RA_OF_ASC_NODE": 130.3534, "ARG_OF_PERICENTER": 292.6898, "MEAN_ANOMALY": 11.6262, "EPHEMERIS_TYPE": 0, "CLASSIFICATION_TYPE": "U", "NORAD_CAT_ID": 66513, "ELEMENT_SET_NO": 999, "REV_AT_EPOCH": 549, "BSTAR": -0.0012050396, "MEAN_MOTION_DOT": -0.00070442, "MEAN_MOTION_DDOT": 0}, "tle": {"line1": "1 66513U 25263AE  25345.83335648 -.00070442  00000+0 -12050-2 0  9996", "line2": "2 66513  43.0005 130.3534 0001630 292.6898  11.6262 15.50594290  5494"}}, "geometry": {"type": "Point", "coordinates": [-72.24554367554744, 17.472152818564165]}}]}